[{"OBJECT_NAME":"STARLINK-30781","OBJECT_ID":"2023-162F","EPOCH":"2026-03-09T22:00:01.999584","MEAN_MOTION":15.23295152,"ECCENTRICITY":0.00010515,"INCLINATION":43.0003,"RA_OF_ASC_NODE":130.9672,"ARG_OF_PERICENTER":284.2671,"MEAN_ANOMALY":110.6046,"EPHEMERIS_TYPE":0,"CLASSIFICATION_TYPE":"U","NORAD_CAT_ID":58123,"ELEMENT_SET_NO":999,"REV_AT_EPOCH":578,"BSTAR":0.076250753,"MEAN_MOTION_DOT":0.02052153,"MEAN_MOTION_DDOT":0},{"OBJECT_NAME":"SL-3 DEB","OBJECT_ID":"1983-075C","EPOCH":"2026-03-09T22:38:24.073152","MEAN_MOTION":15.48527817,"ECCENTRICITY":0.00157968,"INCLINATION":97.2042,"RA_OF_ASC_NODE":58.9597,"ARG_OF_PERICENTER":56.7579,"MEAN_ANOMALY":303.5183,"EPHEMERIS_TYPE":0,"CLASSIFICATION_TYPE":"U","NORAD_CAT_ID":14209,"ELEMENT_SET_NO":999,"REV_AT_EPOCH":33887,"BSTAR":0.00034834445,"MEAN_MOTION_DOT":0.00018558,"MEAN_MOTION_DDOT":0}]
